NORAD_CAT_ID,OBJECT_NAME,OBJECT_TYPE,EPOCH,MEAN_MOTION,ECCENTRICITY,INCLINATION,RA_OF_ASC_NODE,ARG_OF_PERICENTER,MEAN_ANOMALY,BSTAR,MEAN_MOTION_DOT,MEAN_MOTION_DDOT,TLE_LINE0,TLE_LINE1,TLE_LINE2,SEMIMAJOR_AXIS,PERIOD,APOGEE,PERIGEE,DECAYED
53182.0,STARLINK-4278,PAYLOAD,2024-06-14 12:45:09,15.08834983,0.0001222,53.2171,101.467,78.1399,281.973,-8.7243e-05,-1.676e-05,0.0,0 STARLINK-4278,1 53182U 22083BC  24166.53135723 -.00001676  00000-0 -87243-4 0  9992,2 53182  53.2171 101.4670 0001222  78.1399 281.9730 15.08834983106111,6917.896,95.438,540.606,538.915,0.0
53182.0,STARLINK-4278,PAYLOAD,2024-06-15 12:35:56,15.0884067,0.0001572,53.2192,97.0089,86.9754,273.1418,-1.6443e-05,-5.5e-06,0.0,0 STARLINK-4278,1 53182U 22083BC  24167.52495971 -.00000550  00000-0 -16443-4 0  9990,2 53182  53.2192  97.0089 0001572  86.9754 273.1418 15.08840670106260,6917.878,95.438,540.831,538.656,0.0
53182.0,STARLINK-4278,PAYLOAD,2024-06-15 18:57:28,15.088456,0.0001264,53.2169,95.8228,96.7932,263.3204,-0.00018843,-3.286e-05,0.0,0 STARLINK-4278,1 53182U 22083BC  24167.78991875 -.00003286  00000-0 -18843-3 0  9996,2 53182  53.2169  95.8228 0001264  96.7932 263.3204 15.08845600106307,6917.863,95.437,540.603,538.854,0.0
53182.0,STARLINK-4278,PAYLOAD,2024-06-16 12:26:43,15.08838036,0.0001348,53.2171,92.5477,86.9195,273.1951,0.00022801,3.343e-05,0.0,0 STARLINK-4278,1 53182U 22083BC  24168.51855539  .00003343  00000-0  22801-3 0  9995,2 53182  53.2171  92.5477 0001348  86.9195 273.1951 15.08838036106410,6917.886,95.438,540.684,538.819,0.0
53182.0,STARLINK-4278,PAYLOAD,2024-06-16 18:48:17,15.08817319,0.0001341,53.2188,91.3585,86.6305,273.4841,0.00013576,1.872e-05,0.0,0 STARLINK-4278,1 53182U 22083BC  24168.78353424  .00001872  00000-0  13576-3 0  9994,2 53182  53.2188  91.3585 0001341  86.6305 273.4841 15.08817319106454,6917.95,95.439,540.742,538.887,0.0
53182.0,STARLINK-4278,PAYLOAD,2024-06-17 21:49:50,15.08839144,0.0001832,53.2171,86.3038,90.8462,269.274,0.00017679,2.527e-05,0.0,0 STARLINK-4278,1 53182U 22083BC  24169.90960966  .00002527  00000-0  17679-3 0  9990,2 53182  53.2171  86.3038 0001832  90.8462 269.2740 15.08839144106629,6917.883,95.438,541.015,538.481,0.0
53182.0,STARLINK-4278,PAYLOAD,2024-06-18 04:11:22,15.08842008,0.000177,53.219,85.1137,97.0246,263.0948,0.00015899,2.243e-05,0.0,0 STARLINK-4278,1 53182U 22083BC  24170.17456865  .00002243  00000-0  15899-3 0  9996,2 53182  53.2190  85.1137 0001770  97.0246 263.0948 15.08842008106666,6917.874,95.437,540.964,538.515,0.0
53182.0,STARLINK-4278,PAYLOAD,2024-06-18 21:40:37,15.08841112,0.0001537,53.2179,81.8428,95.3144,264.8024,0.00023514,3.456e-05,0.0,0 STARLINK-4278,1 53182U 22083BC  24170.90320752  .00003456  00000-0  23514-3 0  9992,2 53182  53.2179  81.8428 0001537  95.3144 264.8024 15.08841112106779,6917.877,95.437,540.805,538.679,0.0
53182.0,STARLINK-4278,PAYLOAD,2024-06-19 00:51:23,15.08842493,0.0001407,53.2165,81.2484,85.5947,274.5206,0.00017514,2.501e-05,0.0,0 STARLINK-4278,1 53182U 22083BC  24171.03568710  .00002501  00000-0  17514-3 0  9998,2 53182  53.2165  81.2484 0001407  85.5947 274.5206 15.08842493107435,6917.873,95.437,540.711,538.764,0.0
53182.0,STARLINK-4278,PAYLOAD,2024-06-19 18:20:38,15.0883342,0.0001443,53.2177,77.9785,87.6286,272.4872,0.00029758,4.45e-05,0.0,0 STARLINK-4278,1 53182U 22083BC  24171.76433094  .00004450  00000-0  29758-3 0  9992,2 53182  53.2177  77.9785 0001443  87.6286 272.4872 15.08833420107541,6917.901,95.438,540.764,538.767,0.0
53182.0,STARLINK-4278,PAYLOAD,2024-06-19 21:31:24,15.08830826,0.0001384,53.2178,77.383,90.1526,269.9624,0.00010847,1.438e-05,0.0,0 STARLINK-4278,1 53182U 22083BC  24171.89681274  .00001438  00000-0  10847-3 0  9993,2 53182  53.2178  77.3830 0001384  90.1526 269.9624 15.08830826106921,6917.908,95.438,540.731,538.816,0.0
53182.0,STARLINK-4278,PAYLOAD,2024-06-20 10:14:28,15.088442,0.0001315,53.2184,75.0053,86.0774,274.0368,7.6467e-05,9.29e-06,0.0,0 STARLINK-4278,1 53182U 22083BC  24172.42672429  .00000929  00000-0  76467-4 0  9990,2 53182  53.2184  75.0053 0001315  86.0774 274.0368 15.08844200107006,6917.868,95.437,540.642,538.823,0.0
53182.0,STARLINK-4278,PAYLOAD,2024-06-20 21:22:11,15.08834111,0.0001622,53.2202,72.9328,113.1237,246.9926,7.0535e-06,-1.76e-06,0.0,0 STARLINK-4278,1 53182U 22083BC  24172.89041418 -.00000176  00000-0  70535-5 0  9995,2 53182  53.2202  72.9328 0001622 113.1237 246.9926 15.08834111107070,6917.898,95.438,540.885,538.641,0.0
53182.0,STARLINK-4278,PAYLOAD,2024-06-20 22:57:34,15.08834263,0.0001616,53.22,72.6355,113.3013,246.8149,5.7798e-06,-1.96e-06,0.0,0 STARLINK-4278,1 53182U 22083BC  24172.95665419 -.00000196  00000-0  57798-5 0  9993,2 53182  53.2200  72.6355 0001616 113.3013 246.8149 15.08834263107728,6917.898,95.438,540.881,538.645,0.0
53182.0,STARLINK-4278,PAYLOAD,2024-06-21 02:08:21,15.08835951,0.0001338,53.2189,72.0332,89.9672,270.1473,2.266e-06,-2.52e-06,0.0,0 STARLINK-4278,1 53182U 22083BC  24173.08913331 -.00000252  00000-0  22660-5 0  9990,2 53182  53.2189  72.0332 0001338  89.9672 270.1473 15.08835951107100,6917.893,95.438,540.683,538.832,0.0
53182.0,STARLINK-4278,PAYLOAD,2024-06-21 22:48:21,15.08838282,0.0001395,53.2191,68.1679,102.8184,257.2964,0.00012655,1.727e-05,0.0,0 STARLINK-4278,1 53182U 22083BC  24173.95025034  .00001727  00000-0  12655-3 0  9998,2 53182  53.2191  68.1679 0001395 102.8184 257.2964 15.08838282107234,6917.886,95.438,540.716,538.786,0.0
53182.0,STARLINK-4278,PAYLOAD,2024-06-22 00:23:44,15.08838556,0.0001391,53.2189,67.8703,103.5548,256.5599,0.00012874,1.761e-05,0.0,0 STARLINK-4278,1 53182U 22083BC  24174.01649046  .00001761  00000-0  12874-3 0  9992,2 53182  53.2189  67.8703 0001391 103.5548 256.5599 15.08838556107884,6917.885,95.438,540.712,538.788,0.0
53182.0,STARLINK-4278,PAYLOAD,2024-06-22 22:39:08,15.08839924,0.0001229,53.2181,63.7056,88.5812,271.5321,0.000126,1.718e-05,0.0,0 STARLINK-4278,1 53182U 22083BC  24174.94385171  .00001718  00000-0  12600-3 0  9999,2 53182  53.2181  63.7056 0001229  88.5812 271.5321 15.08839924107383,6917.881,95.438,540.596,538.895,0.0
53182.0,STARLINK-4278,PAYLOAD,2024-06-23 20:54:33,15.08839156,0.0001299,53.2182,59.5415,88.3265,271.7876,2.5783e-05,1.22e-06,0.0,0 STARLINK-4278,1 53182U 22083BC  24175.87121554  .00000122  00000-0  25783-4 0  9990,2 53182  53.2182  59.5415 0001299  88.3265 271.7876 15.08839156108164,6917.883,95.438,540.647,538.849,0.0
53182.0,STARLINK-4278,PAYLOAD,2024-06-23 22:29:56,15.08839459,0.0001316,53.2182,59.2443,86.1379,273.9763,2.6621e-05,1.36e-06,0.0,0 STARLINK-4278,1 53182U 22083BC  24175.93745536  .00000136  00000-0  26621-4 0  9996,2 53182  53.2182  59.2443 0001316  86.1379 273.9763 15.08839459107539,6917.882,95.438,540.657,538.837,0.0
53182.0,STARLINK-4278,PAYLOAD,2024-06-24 01:40:42,15.08842024,0.0001265,53.2178,58.6485,88.8928,271.2209,4.2202e-05,3.84e-06,0.0,0 STARLINK-4278,1 53182U 22083BC  24176.06993274  .00000384  00000-0  42202-4 0  9993,2 53182  53.2178  58.6485 0001265  88.8928 271.2209 15.08842024107555,6917.874,95.437,540.614,538.864,0.0
53182.0,STARLINK-4278,PAYLOAD,2024-06-24 20:45:19,15.08837936,0.0001281,53.2175,55.0798,89.202,270.9119,6.9151e-05,8.13e-06,0.0,0 STARLINK-4278,1 53182U 22083BC  24176.86481440  .00000813  00000-0  69151-4 0  9997,2 53182  53.2175  55.0798 0001281  89.2020 270.9119 15.08837936107671,6917.887,95.438,540.638,538.866,0.0
53182.0,STARLINK-4278,PAYLOAD,2024-06-25 20:36:06,15.08843638,0.0001296,53.2176,50.6193,86.5721,273.5419,8.7372e-05,1.103e-05,0.0,0 STARLINK-4278,1 53182U 22083BC  24177.85841071  .00001103  00000-0  87372-4 0  9995,2 53182  53.2176  50.6193 0001296  86.5721 273.5419 15.08843638108462,6917.869,95.437,540.631,538.838,0.0
53182.0,STARLINK-4278,PAYLOAD,2024-06-25 22:11:29,15.08844512,0.000131,53.2178,50.322,86.0152,274.099,9.2816e-05,1.19e-05,0.0,0 STARLINK-4278,1 53182U 22083BC  24177.92464997  .00001190  00000-0  92816-4 0  9996,2 53182  53.2178  50.3220 0001310  86.0152 274.0990 15.08844512107834,6917.867,95.437,540.638,538.825,0.0
53182.0,STARLINK-4278,PAYLOAD,2024-06-27 07:34:35,15.08841899,0.0001393,53.2184,44.0782,85.5061,274.6091,4.6155e-05,4.47e-06,0.0,0 STARLINK-4278,1 53182U 22083BC  24179.31569280  .00000447  00000-0  46155-4 0  9991,2 53182  53.2184  44.0782 0001393  85.5061 274.6091 15.08841899108685,6917.875,95.437,540.703,538.776,0.0
53182.0,STARLINK-4278,PAYLOAD,2024-06-27 20:17:42,15.08827129,0.0001523,53.2194,41.7024,86.0442,274.0724,-9.2128e-05,-1.753e-05,0.0,0 STARLINK-4278,1 53182U 22083BC  24179.84562879 -.00001753  00000-0 -92128-4 0  9990,2 53182  53.2194  41.7024 0001523  86.0442 274.0724 15.08827129108769,6917.92,95.438,540.838,538.731,0.0
53182.0,STARLINK-4278,PAYLOAD,2024-06-28 07:25:23,15.08843098,0.0001217,53.218,39.6175,83.1553,276.9577,8.0896e-05,1e-05,0.0,0 STARLINK-4278,1 53182U 22083BC  24180.30929421  .00001000  00000-0  80896-4 0  9995,2 53182  53.2180  39.6175 0001217  83.1553 276.9577 15.08843098108836,6917.871,95.437,540.578,538.894,0.0
53182.0,STARLINK-4278,PAYLOAD,2024-06-28 21:43:49,15.08852536,0.0001317,53.2175,36.9424,95.3392,264.7751,0.00038582,5.86e-05,0.0,0 STARLINK-4278,1 53182U 22083BC  24180.90543665  .00005860  00000-0  38582-3 0  9995,2 53182  53.2175  36.9424 0001317  95.3392 264.7751 15.08852536108289,6917.842,95.437,540.618,538.796,0.0
53182.0,STARLINK-4278,PAYLOAD,2024-06-29 13:37:43,15.08823279,0.0002275,53.2175,33.9706,82.0401,278.0849,7.3975e-05,8.89e-06,0.0,0 STARLINK-4278,1 53182U 22083BC  24181.56786529  .00000889  00000-0  73975-4 0  9998,2 53182  53.2175  33.9706 0002275  82.0401 278.0849 15.08823279109028,6917.931,95.439,541.37,538.223,0.0
53182.0,STARLINK-4278,PAYLOAD,2024-06-29 19:59:17,15.08815393,0.0001203,53.2173,32.7806,80.2457,279.8671,-0.00017855,-3.126e-05,0.0,0 STARLINK-4278,1 53182U 22083BC  24181.83283861 -.00003126  00000-0 -17855-3 0  9992,2 53182  53.2173  32.7806 0001203  80.2457 279.8671 15.08815393109069,6917.956,95.439,540.653,538.988,0.0
